{
  "type": "FeatureCollection",
  "features": [
    {
      "type": "Feature",
      "properties": {
        "norad_id": 31051,
        "name": "FENGYUN 1C DEB",
        "group": "fengyun-1c-debris",
        "lat": 74.02497824172644,
        "lon": -138.65637547037196,
        "alt_km": 855.335604560586,
        "timestamp": "2025-12-03T15:48:03.351035+00:00",
        "meta_object_name": "FENGYUN 1C DEB",
        "meta_object_id": "1999-025BEV",
        "meta_epoch": "2025-11-29T08:36:57.509280",
        "meta_mean_motion": 14.03023318,
        "meta_eccentricity": 0.00528722,
        "meta_inclination": 98.8207,
        "meta_ra_of_asc_node": 4.3303,
        "meta_arg_of_pericenter": 172.6282,
        "meta_mean_anomaly": 187.5674,
        "meta_ephemeris_type": 0,
        "meta_classification_type": "U",
        "meta_norad_cat_id": 31051,
        "meta_element_set_no": 999,
        "meta_rev_at_epoch": 63631,
        "meta_bstar": 0.00023865273,
        "meta_mean_motion_dot": 3.33e-06,
        "meta_mean_motion_ddot": 0,
        "tle_line1": "1 31051U 99025BEV 25333.35899895  .00000333  00000+0  23865-3 0  9992",
        "tle_line2": "2 31051  98.8207   4.3303 0052872 172.6282 187.5674 14.03023318636313"
      },
      "geometry": {
        "type": "Point",
        "coordinates": [
          -138.65637547037196,
          74.02497824172644
        ]
      }
    },
    {
      "type": "Feature",
      "properties": {
        "norad_id": 31053,
        "name": "FENGYUN 1C DEB",
        "group": "fengyun-1c-debris",
        "lat": 33.07236139482066,
        "lon": -73.36814848289063,
        "alt_km": 772.549444836196,
        "timestamp": "2025-12-03T15:48:03.351044+00:00",
        "meta_object_name": "FENGYUN 1C DEB",
        "meta_object_id": "1999-025BEX",
        "meta_epoch": "2025-12-03T02:53:48.245856",
        "meta_mean_motion": 13.75796118,
        "meta_eccentricity": 0.03096269,
        "meta_inclination": 98.7942,
        "meta_ra_of_asc_node": 100.3491,
        "meta_arg_of_pericenter": 120.6734,
        "meta_mean_anomaly": 242.5323,
        "meta_ephemeris_type": 0,
        "meta_classification_type": "U",
        "meta_norad_cat_id": 31053,
        "meta_element_set_no": 999,
        "meta_rev_at_epoch": 93344,
        "meta_bstar": 0.0029034525,
        "meta_mean_motion_dot": 3.954e-05,
        "meta_mean_motion_ddot": 0,
        "tle_line1": "1 31053U 99025BEX 25337.12069729  .00003954  00000+0  29035-2 0  9994",
        "tle_line2": "2 31053  98.7942 100.3491 0309626 120.6734 242.5323 13.75796118933442"
      },
      "geometry": {
        "type": "Point",
        "coordinates": [
          -73.36814848289063,
          33.07236139482066
        ]
      }
    },
    {
      "type": "Feature",
      "properties": {
        "norad_id": 31054,
        "name": "FENGYUN 1C DEB",
        "group": "fengyun-1c-debris",
        "lat": -1.019484359705239,
        "lon": 170.8116931138799,
        "alt_km": 848.9983559343418,
        "timestamp": "2025-12-03T15:48:03.351052+00:00",
        "meta_object_name": "FENGYUN 1C DEB",
        "meta_object_id": "1999-025BEY",
        "meta_epoch": "2025-12-03T06:44:25.255104",
        "meta_mean_motion": 14.12161045,
        "meta_eccentricity": 0.00103777,
        "meta_inclination": 98.6908,
        "meta_ra_of_asc_node": 350.6017,
        "meta_arg_of_pericenter": 145.3336,
        "meta_mean_anomaly": 277.333,
        "meta_ephemeris_type": 0,
        "meta_classification_type": "U",
        "meta_norad_cat_id": 31054,
        "meta_element_set_no": 999,
        "meta_rev_at_epoch": 96630,
        "meta_bstar": 0.00024280153,
        "meta_mean_motion_dot": 4.03e-06,
        "meta_mean_motion_ddot": 0,
        "tle_line1": "1 31054U 99025BEY 25337.28084786  .00000403  00000+0  24280-3 0  9996",
        "tle_line2": "2 31054  98.6908 350.6017 0010377 145.3336 277.3330 14.12161045966304"
      },
      "geometry": {
        "type": "Point",
        "coordinates": [
          170.8116931138799,
          -1.019484359705239
        ]
      }
    },
    {
      "type": "Feature",
      "properties": {
        "norad_id": 31055,
        "name": "FENGYUN 1C DEB",
        "group": "fengyun-1c-debris",
        "lat": 2.410660716749903,
        "lon": 8.730488915522733,
        "alt_km": 853.0033084402767,
        "timestamp": "2025-12-03T15:48:03.351061+00:00",
        "meta_object_name": "FENGYUN 1C DEB",
        "meta_object_id": "1999-025BEZ",
        "meta_epoch": "2025-12-03T00:45:52.034400",
        "meta_mean_motion": 14.10358113,
        "meta_eccentricity": 0.00240144,
        "meta_inclination": 98.761,
        "meta_ra_of_asc_node": 8.4921,
        "meta_arg_of_pericenter": 300.5724,
        "meta_mean_anomaly": 122.4865,
        "meta_ephemeris_type": 0,
        "meta_classification_type": "U",
        "meta_norad_cat_id": 31055,
        "meta_element_set_no": 999,
        "meta_rev_at_epoch": 95985,
        "meta_bstar": 0.00046727693,
        "meta_mean_motion_dot": 7.89e-06,
        "meta_mean_motion_ddot": 0,
        "tle_line1": "1 31055U 99025BEZ 25337.03185225  .00000789  00000+0  46728-3 0  9998",
        "tle_line2": "2 31055  98.7610   8.4921 0024014 300.5724 122.4865 14.10358113959854"
      },
      "geometry": {
        "type": "Point",
        "coordinates": [
          8.730488915522733,
          2.410660716749903
        ]
      }
    },
    {
      "type": "Feature",
      "properties": {
        "norad_id": 31056,
        "name": "FENGYUN 1C DEB",
        "group": "fengyun-1c-debris",
        "lat": -17.04734514457798,
        "lon": 137.80742986346243,
        "alt_km": 868.275122989804,
        "timestamp": "2025-12-03T15:48:03.351070+00:00",
        "meta_object_name": "FENGYUN 1C DEB",
        "meta_object_id": "1999-025BFA",
        "meta_epoch": "2025-12-01T10:56:58.898400",
        "meta_mean_motion": 14.14278674,
        "meta_eccentricity": 0.0026141,
        "meta_inclination": 98.667,
        "meta_ra_of_asc_node": 318.3519,
        "meta_arg_of_pericenter": 15.0165,
        "meta_mean_anomaly": 136.483,
        "meta_ephemeris_type": 0,
        "meta_classification_type": "U",
        "meta_norad_cat_id": 31056,
        "meta_element_set_no": 999,
        "meta_rev_at_epoch": 96658,
        "meta_bstar": 0.00044312056,
        "meta_mean_motion_dot": 8.06e-06,
        "meta_mean_motion_ddot": 0,
        "tle_line1": "1 31056U 99025BFA 25335.45623725  .00000806  00000+0  44312-3 0  9992",
        "tle_line2": "2 31056  98.6670 318.3519 0026141  15.0165 136.4830 14.14278674966588"
      },
      "geometry": {
        "type": "Point",
        "coordinates": [
          137.80742986346243,
          -17.04734514457798
        ]
      }
    },
    {
      "type": "Feature",
      "properties": {
        "norad_id": 31057,
        "name": "FENGYUN 1C DEB",
        "group": "fengyun-1c-debris",
        "lat": 56.63361502813367,
        "lon": -149.935883578589,
        "alt_km": 717.1728528867379,
        "timestamp": "2025-12-03T15:48:03.351079+00:00",
        "meta_object_name": "FENGYUN 1C DEB",
        "meta_object_id": "1999-025BFB",
        "meta_epoch": "2025-11-15T08:50:16.083744",
        "meta_mean_motion": 14.78766925,
        "meta_eccentricity": 0.01394535,
        "meta_inclination": 99.2623,
        "meta_ra_of_asc_node": 354.6749,
        "meta_arg_of_pericenter": 337.6801,
        "meta_mean_anomaly": 21.8374,
        "meta_ephemeris_type": 0,
        "meta_classification_type": "U",
        "meta_norad_cat_id": 31057,
        "meta_element_set_no": 999,
        "meta_rev_at_epoch": 61548,
        "meta_bstar": 0.0011048389,
        "meta_mean_motion_dot": 9.496e-05,
        "meta_mean_motion_ddot": 0,
        "tle_line1": "1 31057U 99025BFB 25319.36824171  .00009496  00000+0  11048-2 0  9996",
        "tle_line2": "2 31057  99.2623 354.6749 0139453 337.6801  21.8374 14.78766925615484"
      },
      "geometry": {
        "type": "Point",
        "coordinates": [
          -149.935883578589,
          56.63361502813367
        ]
      }
    },
    {
      "type": "Feature",
      "properties": {
        "norad_id": 31058,
        "name": "FENGYUN 1C DEB",
        "group": "fengyun-1c-debris",
        "lat": 28.788962184511668,
        "lon": -80.04024537181813,
        "alt_km": 656.3094308385034,
        "timestamp": "2025-12-03T15:48:03.351088+00:00",
        "meta_object_name": "FENGYUN 1C DEB",
        "meta_object_id": "1999-025BFC",
        "meta_epoch": "2025-11-30T14:27:22.580352",
        "meta_mean_motion": 14.76018692,
        "meta_eccentricity": 0.0094738,
        "meta_inclination": 99.5638,
        "meta_ra_of_asc_node": 281.6638,
        "meta_arg_of_pericenter": 143.0864,
        "meta_mean_anomaly": 217.691,
        "meta_ephemeris_type": 0,
        "meta_classification_type": "U",
        "meta_norad_cat_id": 31058,
        "meta_element_set_no": 999,
        "meta_rev_at_epoch": 99370,
        "meta_bstar": 0.0011184,
        "meta_mean_motion_dot": 8.226e-05,
        "meta_mean_motion_ddot": 0,
        "tle_line1": "1 31058U 99025BFC 25334.60234468  .00008226  00000+0  11184-2 0  9996",
        "tle_line2": "2 31058  99.5638 281.6638 0094738 143.0864 217.6910 14.76018692993708"
      },
      "geometry": {
        "type": "Point",
        "coordinates": [
          -80.04024537181813,
          28.788962184511668
        ]
      }
    }
  ]
}